QIANFAN-60              
1 62790U 25016F   26023.92233376  .00000178  00000+0  25646-3 0  9997
2 62790  88.9737  98.7146 0015126 214.7012 145.3153 13.50986943 52923
QIANFAN-61              
1 62791U 25016G   26023.95529656  .00000185  00000+0  26746-3 0  9990
2 62791  88.9805  98.9029 0014070 213.4481 146.5783 13.50988406 52945
QIANFAN-62              
1 62792U 25016H   26023.95941719  .00000177  00000+0  25578-3 0  9992
2 62792  88.9751  98.7480 0015438 214.4676 145.5475 13.50991017 52939
QIANFAN-63              
1 62793U 25016J   26023.83596060  .00000182  00000+0  26251-3 0  9990
2 62793  88.9758  98.7152 0015316 220.4620 139.5393 13.50989183 52959
QIANFAN-64              
1 62794U 25016K   26023.95116993  .00000175  00000+0  25294-3 0  9995
2 62794  88.9744  98.6716 0013497 211.7304 148.3035 13.50987712 52968
QIANFAN-65              
1 62795U 25016L   26023.94711307  .00000195  00000+0  28389-3 0  9995
2 62795  88.9741  98.6966 0013291 213.4088 146.6226 13.50986484 52949
QIANFAN-66              
1 62796U 25016M   26023.90179367  .00000183  00000+0  26551-3 0  9992
2 62796  88.9760  98.6797 0014543 209.6064 150.4265 13.50991200 52987
QIANFAN-67              
1 62797U 25016N   26023.90590881  .00000181  00000+0  26225-3 0  9997
2 62797  88.9750  98.7007 0014279 216.7236 143.2938 13.50995477 52952
QIANFAN-68              
1 62798U 25016P   26023.89769570  .00000191  00000+0  27745-3 0  9998
2 62798  88.9754  98.7483 0014392 214.9283 145.0925 13.50987427 52933
QIANFAN-69              
1 62799U 25016Q   26023.91414382  .00000173  00000+0  24969-3 0  9995
2 62799  88.9733  98.6069 0015089 216.3988 143.6138 13.50987719 52970
QIANFAN-70              
1 62800U 25016R   26023.93065383  .00000179  00000+0  25883-3 0  9995
2 62800  88.9754  98.7526 0015019 206.2383 153.8009 13.50991528 52934
QIANFAN-71              
1 62801U 25016S   26023.92646091  .00000174  00000+0  25151-3 0  9999
2 62801  88.9748  98.7299 0014895 220.0067 139.9988 13.50990833 52938
QIANFAN-72              
1 62802U 25016T   26023.94290920  .00000178  00000+0  25630-3 0  9994
2 62802  88.9738  98.7375 0017916 228.7408 131.2200 13.50990848 52921
QIANFAN-73              
1 63159U 25046A   26023.89596823  .00000315  00000+0  46891-3 0  9993
2 63159  88.9796 315.6670 0015802   8.9069 351.2359 13.50993489 53107
QIANFAN-74              
1 63160U 25046B   26023.95352458  .00000323  00000+0  48100-3 0  9990
2 63160  88.9796 315.5499 0001841  68.7823 291.3524 13.50990847 53177
QIANFAN-75              
1 63161U 25046C   26023.71847494  .00000309  00000+0  46028-3 0  9995
2 63161  88.9797 315.8084 0017115  11.7035 348.4511 13.50994372 53016
QIANFAN-76              
1 63162U 25046D   26023.93729558  .00000325  00000+0  48516-3 0  9992
2 63162  88.9796 315.7661 0014682  12.6505 347.5012 13.50996429 53059
QIANFAN-77              
1 63163U 25046E   26023.90057131  .00000809  00000+0  57980-3 0  9993
2 63163  88.9795 313.4313 0013758 316.9548  43.0551 13.96135353 54337
QIANFAN-78              
1 63164U 25046F   26023.90414888  .00000332  00000+0  49530-3 0  9993
2 63164  88.9795 315.6332 0016114  14.2578 345.9025 13.50995402 53128
QIANFAN-79              
1 63165U 25046G   26023.93281748  .00000325  00000+0  48521-3 0  9995
2 63165  88.9800 315.7394 0015778  12.7318 347.4228 13.50992517 53075
QIANFAN-80              
1 63166U 25046H   26023.94933912  .00000335  00000+0  50057-3 0  9992
2 63166  88.9797 315.4435 0014847  17.0131 343.1515 13.50995280 53231
QIANFAN-81              
1 63167U 25046J   26023.92691268  .00000315  00000+0  46919-3 0  9996
2 63167  88.9797 315.5136 0015536   5.8492 354.2837 13.51021322 53184
QIANFAN-82              
1 63168U 25046K   26023.88775072  .00000320  00000+0  47632-3 0  9997
2 63168  88.9796 315.5617 0013908  14.2045 345.9494 13.50994312 53168
QIANFAN-83              
1 63169U 25046L   26023.94205192  .00000408  00000+0  51322-3 0  9994
2 63169  88.9797 315.2497 0014616 357.5990   2.5095 13.61997997 53349
QIANFAN-84              
1 63170U 25046M   26023.91523137  .00000322  00000+0  48007-3 0  9996
2 63170  88.9796 315.6912 0016759   9.5511 350.5956 13.51003799 53090
QIANFAN-85              
1 63171U 25046N   26023.91231085  .00000317  00000+0  47160-3 0  9998
2 63171  88.9796 315.5632 0014233  12.8454 347.3057 13.50993146 53164
QIANFAN-86              
1 63172U 25046P   26023.92062700  .00000329  00000+0  49102-3 0  9997
2 63172  88.9798 315.4255 0012248  17.9754 342.1828 13.50995033 53245
QIANFAN-87              
1 63173U 25046Q   26023.89202600  .00000315  00000+0  46953-3 0  9995
2 63173  88.9794 315.5385 0012759  13.3687 346.7800 13.50992543 53174
QIANFAN-88              
1 63174U 25046R   26023.90816083  .00000333  00000+0  49719-3 0  9997
2 63174  88.9797 315.4924 0013377  20.3199 339.8481 13.50998760 53208
QIANFAN-89              
1 63175U 25046S   26023.94514741  .00000339  00000+0  50632-3 0  9990
2 63175  88.9799 315.6775 0017484   9.9376 350.2117 13.50963921 53103
QIANFAN-90              
1 63176U 25046T   26023.89982674  .00000335  00000+0  49989-3 0  9998
2 63176  88.9799 315.6551 0014361   9.8676 350.2755 13.50966000 53119
QIANFAN-91              
1 66033U 25233A   26023.93257015  .00000087  00000+0  11642-3 0  9999
2 66033  88.9914  57.8092 0001879  89.7978 270.3389 13.50990999 13700
QIANFAN-92              
1 66034U 25233B   26023.94076845  .00000178  00000+0  25712-3 0  9995
2 66034  88.9898  57.8040 0004061 269.3616  90.7070 13.50954140 13705
QIANFAN-93              
1 66035U 25233C   26023.94902953  .00000096  00000+0  13039-3 0  9992
2 66035  88.9925  57.8158 0001946  90.0542 270.0832 13.50993838 13709
QIANFAN-94              
1 66036U 25233D   26023.71932483  .00000129  00000+0  16280-3 0  9997
2 66036  88.9889  57.7079 0014385 281.1264  78.8273 13.57581008 13729
QIANFAN-95              
1 66037U 25233E   26023.83748708  .00000083  00000+0  59149-4 0  9997
2 66037  88.9889  57.3648 0010995 268.7489  91.2423 13.87686305 13940
QIANFAN-96              
1 66038U 25233F   26023.96959848  .00000072  00000+0  93602-4 0  9991
2 66038  88.9916  57.8162 0001823  88.9145 271.2215 13.50991409 13706
QIANFAN-97              
1 66039U 25233G   26023.95315644  .00000061  00000+0  76063-4 0  9991
2 66039  88.9920  57.7972 0001898  90.5249 269.6120 13.50992759 13712
QIANFAN-98              
1 66040U 25233H   26023.79901195  .00000112  00000+0  11560-3 0  9994
2 66040  88.9902  57.5708 0013388 263.3054  96.6584 13.68571866 13825
QIANFAN-99              
1 66041U 25233J   26023.96549052  .00000071  00000+0  91264-4 0  9998
2 66041  88.9920  57.7990 0001860 102.6708 257.4651 13.50992590 13716
QIANFAN-100             
1 66042U 25233K   26023.95725790  .00000011  00000+0 -10774-5 0  9996
2 66042  88.9931  57.7107 0001928  89.7045 270.4327 13.50993789 13764
QIANFAN-101             
1 66043U 25233L   26023.95895022  .00000418  00000+0  16690-3 0  9994
2 66043  88.9920  57.1573 0012612 254.2083 105.7720 14.26700312 14060
QIANFAN-102             
1 66044U 25233M   26023.86996497 -.00063502  00000+0 -88464-1 0  9994
2 66044  88.9918  57.7315 0013289 276.0821  83.8820 13.58114563 13743
QIANFAN-103             
1 66045U 25233N   26023.90779306  .00000120  00000+0  16701-3 0  9990
2 66045  88.9921  57.8089 0001931  88.9507 271.1866 13.50987369 13701
QIANFAN-104             
1 66046U 25233P   26022.89934271 -.02108639  00000+0 -31683+1 0  9993
2 66046  88.9924  57.8174 0014249 269.5626  90.3895 13.57154121 13628
QIANFAN-105             
1 66047U 25233Q   26021.71016019  .00000167  00000+0  15207-3 0  9995
2 66047  88.9943  57.7828 0014222 267.1530  92.8009 13.78552380 13541
QIANFAN-106             
1 66048U 25233R   26023.99018785  .00000073  00000+0  93867-4 0  9995
2 66048  88.9906  57.7783 0001961 104.5115 255.6254 13.50993296 13726
QIANFAN-107             
1 66049U 25233S   26023.92430568  .00000036  00000+0  36478-4 0  9990
2 66049  88.9923  57.7946 0001937  90.0315 270.1059 13.50990587 13715
QIANFAN-108             
1 66050U 25233T   26023.55856598 -.02080112  00000+0 -35571+1 0  9992
2 66050  88.9851  57.8378 0006297 327.2737  32.8022 13.48900487 13668
